[
    {
        "Altitude(m)": 610399.5716658687,
        "Argument of Periapsis(deg)": 0.0,
        "Eccentricity": 0.0,
        "Inclination(deg)": 60.0,
        "Latitude(deg)": 52.11145309625935,
        "Longitude(deg)": 127.58436153532176,
        "Mean Anomaly(deg)": 65.45449999999998,
        "RAAN(deg)": 180.0,
        "Satellite Name": "Test1 796",
        "Satellite Number": 796,
        "Semi-Major Axis(m)": 6980739.136638005,
        "Time(s)": 0
    },
    {
        "Altitude(m)": 610481.7223943932,
        "Argument of Periapsis(deg)": 0.00010418945913296404,
        "Eccentricity": 0.0,
        "Inclination(deg)": 60.0,
        "Latitude(deg)": 52.47105473568631,
        "Longitude(deg)": 128.36650056727896,
        "Mean Anomaly(deg)": 66.07460614546183,
        "RAAN(deg)": 179.99957995086024,
        "Satellite Name": "Test1 796",
        "Satellite Number": 796,
        "Semi-Major Axis(m)": 6980739.136638005,
        "Time(s)": 10
    }
]